CUBESX-HSE 3 (RS42S)    
1 57178U 23091N   25126.10162803  .00013649  00000+0  63328-3 0  9997
2 57178  97.5639 183.7371 0015317  85.8639 274.4346 15.20057914102372
MONITOR-3 (RS58S)       
1 57180U 23091Q   25126.15801913  .00011436  00000+0  55572-3 0  9991
2 57180  97.5636 183.1477 0016010  87.4024 272.9042 15.18489910102345
MONITOR-4 (RS57S)       
1 57182U 23091S   25126.08959055  .00011657  00000+0  56565-3 0  9994
2 57182  97.5630 183.0374 0016055  88.1095 272.1977 15.18533725102333
MONITOR-2 (RS39S)       
1 57184U 23091U   25126.11273839  .00006710  00000+0  37192-3 0  9998
2 57184  97.5635 181.9900 0014050  85.8603 274.4234 15.14038587102269
SVYATOBOR 1 (RS60S)     
1 57187U 23091X   25126.18961464  .00010031  00000+0  48974-3 0  9997
2 57187  97.5636 183.8901 0012774  79.9815 280.2860 15.18403260102397
VIZARD-METEO (RS38S)    
1 57189U 23091Z   25126.10663277  .00014986  00000+0  64368-3 0  9990
2 57189  97.5626 185.4611 0011097  75.5349 284.7118 15.22730349102497
NANOZOND 1 (RS49S)      
1 57190U 23091AA  25126.16126752  .00032347  00000+0  98485-3 0  9998
2 57190  97.5579 188.8235 0007791  76.4552 283.7558 15.33904738102738
POLYTECH-UNIVERSE 3 (R*)
1 57191U 23091AB  25126.11447900  .00006751  00000+0  37276-3 0  9996
2 57191  97.5605 181.5478 0018881 100.5680 259.7679 15.14108393102257
UTMN 2 (RS27S)          
1 57203U 23091AP  25126.10904513  .00013527  00000+0  61011-3 0  9990
2 57203  97.5626 184.8399 0011664  76.6145 283.6390 15.21078382102453
ARCCUBE 1 (RS25S)       
1 57205U 23091AR  25126.17131153  .00048643  00000+0  11260-2 0  9998
2 57205  97.5498 190.5102 0006174  76.4514 283.7420 15.42289690102865
KUZGTU 1 (RS47S)        
1 57217U 23091AV  25126.11457572  .00012929  00000+0  61024-3 0  9993
2 57217  97.5613 183.3465 0015371  87.4376 272.8618 15.19478341102366
SONATE-2                
1 59112U 24043Q   25125.81841563  .00021370  00000+0  63816-3 0  9991
2 59112  97.5081 256.3410 0010847 233.3596 126.6650 15.34576653 65004
MESAT1                  
1 60209U 24125G   25126.03534811  .00020401  00000+0  60163-3 0  9997
2 60209  97.2835 338.0635 0017597 259.5551 100.3709 15.34879741 46652
OOV-CUBE (TUBSAT-30)    
1 60240U 24128F   25125.93559099  .00002997  00000+0  25003-3 0  9992
2 60240  61.9959 202.6760 0048535  46.4253 314.0850 15.00060271 44961
