[
  {
    "OBJECT_NAME": "CUBESX-HSE 3 (RS42S)",
    "OBJECT_ID": "2023-091N",
    "EPOCH": "2025-05-06T02:26:20.661792",
    "MEAN_MOTION": 15.20057914,
    "ECCENTRICITY": 0.0015317,
    "INCLINATION": 97.5639,
    "RA_OF_ASC_NODE": 183.7371,
    "ARG_OF_PERICENTER": 85.8639,
    "MEAN_ANOMALY": 274.4346,
    "EPHEMERIS_TYPE": 0,
    "CLASSIFICATION_TYPE": "U",
    "NORAD_CAT_ID": 57178,
    "ELEMENT_SET_NO": 999,
    "REV_AT_EPOCH": 10237,
    "BSTAR": 0.00063328,
    "MEAN_MOTION_DOT": 0.00013649,
    "MEAN_MOTION_DDOT": 0
  },
  {
    "OBJECT_NAME": "MONITOR-3 (RS58S)",
    "OBJECT_ID": "2023-091Q",
    "EPOCH": "2025-05-06T03:47:32.852832",
    "MEAN_MOTION": 15.1848991,
    "ECCENTRICITY": 0.001601,
    "INCLINATION": 97.5636,
    "RA_OF_ASC_NODE": 183.1477,
    "ARG_OF_PERICENTER": 87.4024,
    "MEAN_ANOMALY": 272.9042,
    "EPHEMERIS_TYPE": 0,
    "CLASSIFICATION_TYPE": "U",
    "NORAD_CAT_ID": 57180,
    "ELEMENT_SET_NO": 999,
    "REV_AT_EPOCH": 10234,
    "BSTAR": 0.00055572,
    "MEAN_MOTION_DOT": 0.00011436,
    "MEAN_MOTION_DDOT": 0
  },
  {
    "OBJECT_NAME": "MONITOR-4 (RS57S)",
    "OBJECT_ID": "2023-091S",
    "EPOCH": "2025-05-06T02:09:00.623520",
    "MEAN_MOTION": 15.18533725,
    "ECCENTRICITY": 0.0016055,
    "INCLINATION": 97.563,
    "RA_OF_ASC_NODE": 183.0374,
    "ARG_OF_PERICENTER": 88.1095,
    "MEAN_ANOMALY": 272.1977,
    "EPHEMERIS_TYPE": 0,
    "CLASSIFICATION_TYPE": "U",
    "NORAD_CAT_ID": 57182,
    "ELEMENT_SET_NO": 999,
    "REV_AT_EPOCH": 10233,
    "BSTAR": 0.00056565,
    "MEAN_MOTION_DOT": 0.00011657,
    "MEAN_MOTION_DDOT": 0
  },
  {
    "OBJECT_NAME": "MONITOR-2 (RS39S)",
    "OBJECT_ID": "2023-091U",
    "EPOCH": "2025-05-06T02:42:20.596896",
    "MEAN_MOTION": 15.14038587,
    "ECCENTRICITY": 0.001405,
    "INCLINATION": 97.5635,
    "RA_OF_ASC_NODE": 181.99,
    "ARG_OF_PERICENTER": 85.8603,
    "MEAN_ANOMALY": 274.4234,
    "EPHEMERIS_TYPE": 0,
    "CLASSIFICATION_TYPE": "U",
    "NORAD_CAT_ID": 57184,
    "ELEMENT_SET_NO": 999,
    "REV_AT_EPOCH": 10226,
    "BSTAR": 0.00037192,
    "MEAN_MOTION_DOT": 6.71e-05,
    "MEAN_MOTION_DDOT": 0
  },
  {
    "OBJECT_NAME": "SVYATOBOR 1 (RS60S)",
    "OBJECT_ID": "2023-091X",
    "EPOCH": "2025-05-06T04:33:02.704896",
    "MEAN_MOTION": 15.1840326,
    "ECCENTRICITY": 0.0012774,
    "INCLINATION": 97.5636,
    "RA_OF_ASC_NODE": 183.8901,
    "ARG_OF_PERICENTER": 79.9815,
    "MEAN_ANOMALY": 280.286,
    "EPHEMERIS_TYPE": 0,
    "CLASSIFICATION_TYPE": "U",
    "NORAD_CAT_ID": 57187,
    "ELEMENT_SET_NO": 999,
    "REV_AT_EPOCH": 10239,
    "BSTAR": 0.00048974,
    "MEAN_MOTION_DOT": 0.00010031,
    "MEAN_MOTION_DDOT": 0
  },
  {
    "OBJECT_NAME": "VIZARD-METEO (RS38S)",
    "OBJECT_ID": "2023-091Z",
    "EPOCH": "2025-05-06T02:33:33.071328",
    "MEAN_MOTION": 15.22730349,
    "ECCENTRICITY": 0.0011097,
    "INCLINATION": 97.5626,
    "RA_OF_ASC_NODE": 185.4611,
    "ARG_OF_PERICENTER": 75.5349,
    "MEAN_ANOMALY": 284.7118,
    "EPHEMERIS_TYPE": 0,
    "CLASSIFICATION_TYPE": "U",
    "NORAD_CAT_ID": 57189,
    "ELEMENT_SET_NO": 999,
    "REV_AT_EPOCH": 10249,
    "BSTAR": 0.00064368,
    "MEAN_MOTION_DOT": 0.00014986,
    "MEAN_MOTION_DDOT": 0
  },
  {
    "OBJECT_NAME": "NANOZOND 1 (RS49S)",
    "OBJECT_ID": "2023-091AA",
    "EPOCH": "2025-05-06T03:52:13.513728",
    "MEAN_MOTION": 15.33904738,
    "ECCENTRICITY": 0.0007791,
    "INCLINATION": 97.5579,
    "RA_OF_ASC_NODE": 188.8235,
    "ARG_OF_PERICENTER": 76.4552,
    "MEAN_ANOMALY": 283.7558,
    "EPHEMERIS_TYPE": 0,
    "CLASSIFICATION_TYPE": "U",
    "NORAD_CAT_ID": 57190,
    "ELEMENT_SET_NO": 999,
    "REV_AT_EPOCH": 10273,
    "BSTAR": 0.00098485,
    "MEAN_MOTION_DOT": 0.00032347,
    "MEAN_MOTION_DDOT": 0
  },
  {
    "OBJECT_NAME": "POLYTECH-UNIVERSE 3 (RS46S)",
    "OBJECT_ID": "2023-091AB",
    "EPOCH": "2025-05-06T02:44:50.985600",
    "MEAN_MOTION": 15.14108393,
    "ECCENTRICITY": 0.0018881,
    "INCLINATION": 97.5605,
    "RA_OF_ASC_NODE": 181.5478,
    "ARG_OF_PERICENTER": 100.568,
    "MEAN_ANOMALY": 259.7679,
    "EPHEMERIS_TYPE": 0,
    "CLASSIFICATION_TYPE": "U",
    "NORAD_CAT_ID": 57191,
    "ELEMENT_SET_NO": 999,
    "REV_AT_EPOCH": 10225,
    "BSTAR": 0.00037276,
    "MEAN_MOTION_DOT": 6.751e-05,
    "MEAN_MOTION_DDOT": 0
  },
  {
    "OBJECT_NAME": "UTMN 2 (RS27S)",
    "OBJECT_ID": "2023-091AP",
    "EPOCH": "2025-05-06T02:37:01.499232",
    "MEAN_MOTION": 15.21078382,
    "ECCENTRICITY": 0.0011664,
    "INCLINATION": 97.5626,
    "RA_OF_ASC_NODE": 184.8399,
    "ARG_OF_PERICENTER": 76.6145,
    "MEAN_ANOMALY": 283.639,
    "EPHEMERIS_TYPE": 0,
    "CLASSIFICATION_TYPE": "U",
    "NORAD_CAT_ID": 57203,
    "ELEMENT_SET_NO": 999,
    "REV_AT_EPOCH": 10245,
    "BSTAR": 0.00061011,
    "MEAN_MOTION_DOT": 0.00013527,
    "MEAN_MOTION_DDOT": 0
  },
  {
    "OBJECT_NAME": "ARCCUBE 1 (RS25S)",
    "OBJECT_ID": "2023-091AR",
    "EPOCH": "2025-05-06T04:06:41.316192",
    "MEAN_MOTION": 15.4228969,
    "ECCENTRICITY": 0.0006174,
    "INCLINATION": 97.5498,
    "RA_OF_ASC_NODE": 190.5102,
    "ARG_OF_PERICENTER": 76.4514,
    "MEAN_ANOMALY": 283.742,
    "EPHEMERIS_TYPE": 0,
    "CLASSIFICATION_TYPE": "U",
    "NORAD_CAT_ID": 57205,
    "ELEMENT_SET_NO": 999,
    "REV_AT_EPOCH": 10286,
    "BSTAR": 0.001126,
    "MEAN_MOTION_DOT": 0.00048643,
    "MEAN_MOTION_DDOT": 0
  },
  {
    "OBJECT_NAME": "KUZGTU 1 (RS47S)",
    "OBJECT_ID": "2023-091AV",
    "EPOCH": "2025-05-06T02:44:59.342208",
    "MEAN_MOTION": 15.19478341,
    "ECCENTRICITY": 0.0015371,
    "INCLINATION": 97.5613,
    "RA_OF_ASC_NODE": 183.3465,
    "ARG_OF_PERICENTER": 87.4376,
    "MEAN_ANOMALY": 272.8618,
    "EPHEMERIS_TYPE": 0,
    "CLASSIFICATION_TYPE": "U",
    "NORAD_CAT_ID": 57217,
    "ELEMENT_SET_NO": 999,
    "REV_AT_EPOCH": 10236,
    "BSTAR": 0.00061024,
    "MEAN_MOTION_DOT": 0.00012929,
    "MEAN_MOTION_DDOT": 0
  },
  {
    "OBJECT_NAME": "SONATE-2",
    "OBJECT_ID": "2024-043Q",
    "EPOCH": "2025-05-05T19:38:31.110432",
    "MEAN_MOTION": 15.34576653,
    "ECCENTRICITY": 0.0010847,
    "INCLINATION": 97.5081,
    "RA_OF_ASC_NODE": 256.341,
    "ARG_OF_PERICENTER": 233.3596,
    "MEAN_ANOMALY": 126.665,
    "EPHEMERIS_TYPE": 0,
    "CLASSIFICATION_TYPE": "U",
    "NORAD_CAT_ID": 59112,
    "ELEMENT_SET_NO": 999,
    "REV_AT_EPOCH": 6500,
    "BSTAR": 0.00063816,
    "MEAN_MOTION_DOT": 0.0002137,
    "MEAN_MOTION_DDOT": 0
  },
  {
    "OBJECT_NAME": "MESAT1",
    "OBJECT_ID": "2024-125G",
    "EPOCH": "2025-05-06T00:50:54.076704",
    "MEAN_MOTION": 15.34879741,
    "ECCENTRICITY": 0.0017597,
    "INCLINATION": 97.2835,
    "RA_OF_ASC_NODE": 338.0635,
    "ARG_OF_PERICENTER": 259.5551,
    "MEAN_ANOMALY": 100.3709,
    "EPHEMERIS_TYPE": 0,
    "CLASSIFICATION_TYPE": "U",
    "NORAD_CAT_ID": 60209,
    "ELEMENT_SET_NO": 999,
    "REV_AT_EPOCH": 4665,
    "BSTAR": 0.00060163,
    "MEAN_MOTION_DOT": 0.00020401,
    "MEAN_MOTION_DDOT": 0
  },
  {
    "OBJECT_NAME": "OOV-CUBE (TUBSAT-30)",
    "OBJECT_ID": "2024-128F",
    "EPOCH": "2025-05-05T22:27:15.061536",
    "MEAN_MOTION": 15.00060271,
    "ECCENTRICITY": 0.0048535,
    "INCLINATION": 61.9959,
    "RA_OF_ASC_NODE": 202.676,
    "ARG_OF_PERICENTER": 46.4253,
    "MEAN_ANOMALY": 314.085,
    "EPHEMERIS_TYPE": 0,
    "CLASSIFICATION_TYPE": "U",
    "NORAD_CAT_ID": 60240,
    "ELEMENT_SET_NO": 999,
    "REV_AT_EPOCH": 4496,
    "BSTAR": 0.00025003,
    "MEAN_MOTION_DOT": 2.997e-05,
    "MEAN_MOTION_DDOT": 0
  }
]